{"type": "FeatureCollection", "features": [ {"type": "Feature", "properties": {"norad_id": 31880, "name": "FENGYUN 1C DEB", "group": "fengyun-1c-debris", "lat": -58.472419093239196, "lon": 158.20106925788417, "alt_km": 995.704015033105, "timestamp": "2025-12-05T04:52:15.576018+00:00", "meta": {"OBJECT_NAME": "FENGYUN 1C DEB", "OBJECT_ID": "1999-025CKF", "EPOCH": "2025-11-25T04:55:41.522880", "MEAN_MOTION": 13.89366235, "ECCENTRICITY": 0.01285165, "INCLINATION": 100.0297, "RA_OF_ASC_NODE": 130.6763, "ARG_OF_PERICENTER": 197.7169, "MEAN_ANOMALY": 161.9484, "EPHEMERIS_TYPE": 0, "CLASSIFICATION_TYPE": "U", "NORAD_CAT_ID": 31880, "ELEMENT_SET_NO": 999, "REV_AT_EPOCH": 62736, "BSTAR": 0.0005535194, "MEAN_MOTION_DOT": 6.7e-06, "MEAN_MOTION_DDOT": 0}, "tle": {"line1": "1 31880U 99025CKF 25329.20534170  .00000670  00000+0  55352-3 0  9993", "line2": "2 31880 100.0297 130.6763 0128516 197.7169 161.9484 13.89366235627363"}}, "geometry": {"type": "Point", "coordinates": [158.20106925788417, -58.472419093239196]}}, {"type": "Feature", "properties": {"norad_id": 31882, "name": "FENGYUN 1C DEB", "group": "fengyun-1c-debris", "lat": -40.474779749958806, "lon": -90.53716438496946, "alt_km": 847.7967966369433, "timestamp": "2025-12-05T04:52:15.576026+00:00", "meta": {"OBJECT_NAME": "FENGYUN 1C DEB", "OBJECT_ID": "1999-025CKH", "EPOCH": "2025-12-04T12:04:11.131104", "MEAN_MOTION": 14.12940251, "ECCENTRICITY": 0.0035445, "INCLINATION": 98.9162, "RA_OF_ASC_NODE": 261.0675, "ARG_OF_PERICENTER": 248.9848, "MEAN_ANOMALY": 110.7531, "EPHEMERIS_TYPE": 0, "CLASSIFICATION_TYPE": "U", "NORAD_CAT_ID": 31882, "ELEMENT_SET_NO": 999, "REV_AT_EPOCH": 58520, "BSTAR": 0.0011941, "MEAN_MOTION_DOT": 2.193e-05, "MEAN_MOTION_DDOT": 0}, "tle": {"line1": "1 31882U 99025CKH 25338.50290661  .00002193  00000+0  11941-2 0  9999", "line2": "2 31882  98.9162 261.0675 0035445 248.9848 110.7531 14.12940251585207"}}, "geometry": {"type": "Point", "coordinates": [-90.53716438496946, -40.474779749958806]}}, {"type": "Feature", "properties": {"norad_id": 31883, "name": "FENGYUN 1C DEB", "group": "fengyun-1c-debris", "lat": -24.278571230996416, "lon": -100.82548608336675, "alt_km": 712.774758906341, "timestamp": "2025-12-05T04:52:15.576035+00:00", "meta": {"OBJECT_NAME": "FENGYUN 1C DEB", "OBJECT_ID": "1999-025CKJ", "EPOCH": "2025-12-03T13:42:48.102912", "MEAN_MOTION": 14.67610579, "ECCENTRICITY": 0.01251556, "INCLINATION": 99.0277, "RA_OF_ASC_NODE": 253.2649, "ARG_OF_PERICENTER": 97.1428, "MEAN_ANOMALY": 264.4023, "EPHEMERIS_TYPE": 0, "CLASSIFICATION_TYPE": "U", "NORAD_CAT_ID": 31883, "ELEMENT_SET_NO": 999, "REV_AT_EPOCH": 97844, "BSTAR": 0.00094839585, "MEAN_MOTION_DOT": 6.003e-05, "MEAN_MOTION_DDOT": 0}, "tle": {"line1": "1 31883U 99025CKJ 25337.57139008  .00006003  00000+0  94840-3 0  9997", "line2": "2 31883  99.0277 253.2649 0125155  97.1428 264.4023 14.67610579978449"}}, "geometry": {"type": "Point", "coordinates": [-100.82548608336675, -24.278571230996416]}}, {"type": "Feature", "properties": {"norad_id": 31887, "name": "FENGYUN 1C DEB", "group": "fengyun-1c-debris", "lat": 26.044370957879313, "lon": 25.002552381210172, "alt_km": 682.4027130926115, "timestamp": "2025-12-05T04:52:15.576044+00:00", "meta": {"OBJECT_NAME": "FENGYUN 1C DEB", "OBJECT_ID": "1999-025CKN", "EPOCH": "2025-12-01T21:40:30.420768", "MEAN_MOTION": 14.57640474, "ECCENTRICITY": 0.00244837, "INCLINATION": 99.536, "RA_OF_ASC_NODE": 25.9385, "ARG_OF_PERICENTER": 37.5978, "MEAN_ANOMALY": 322.6923, "EPHEMERIS_TYPE": 0, "CLASSIFICATION_TYPE": "U", "NORAD_CAT_ID": 31887, "ELEMENT_SET_NO": 999, "REV_AT_EPOCH": 96450, "BSTAR": 0.0013108732, "MEAN_MOTION_DOT": 5.945e-05, "MEAN_MOTION_DDOT": 0}, "tle": {"line1": "1 31887U 99025CKN 25335.90312987  .00005945  00000+0  13109-2 0  9997", "line2": "2 31887  99.5360  25.9385 0024483  37.5978 322.6923 14.57640474964506"}}, "geometry": {"type": "Point", "coordinates": [25.002552381210172, 26.044370957879313]}}, {"type": "Feature", "properties": {"norad_id": 31888, "name": "FENGYUN 1C DEB", "group": "fengyun-1c-debris", "lat": -14.10643220615427, "lon": -92.5098740702751, "alt_km": 786.4306117121314, "timestamp": "2025-12-05T04:52:15.576053+00:00", "meta": {"OBJECT_NAME": "FENGYUN 1C DEB", "OBJECT_ID": "1999-025CKP", "EPOCH": "2025-11-28T00:25:18.962112", "MEAN_MOTION": 14.3367913, "ECCENTRICITY": 0.00183068, "INCLINATION": 99.1503, "RA_OF_ASC_NODE": 257.5749, "ARG_OF_PERICENTER": 264.7226, "MEAN_ANOMALY": 95.1868, "EPHEMERIS_TYPE": 0, "CLASSIFICATION_TYPE": "U", "NORAD_CAT_ID": 31888, "ELEMENT_SET_NO": 999, "REV_AT_EPOCH": 95426, "BSTAR": 0.002133667, "MEAN_MOTION_DOT": 5.886e-05, "MEAN_MOTION_DDOT": 0}, "tle": {"line1": "1 31888U 99025CKP 25332.01758058  .00005886  00000+0  21337-2 0  9996", "line2": "2 31888  99.1503 257.5749 0018306 264.7226  95.1868 14.33679130954263"}}, "geometry": {"type": "Point", "coordinates": [-92.5098740702751, -14.10643220615427]}}, {"type": "Feature", "properties": {"norad_id": 31890, "name": "FENGYUN 1C DEB", "group": "fengyun-1c-debris", "lat": -47.608123173115615, "lon": 0.6318543726008881, "alt_km": 830.6366180691975, "timestamp": "2025-12-05T04:52:15.576062+00:00", "meta": {"OBJECT_NAME": "FENGYUN 1C DEB", "OBJECT_ID": "1999-025CKR", "EPOCH": "2025-11-29T06:03:10.935360", "MEAN_MOTION": 14.10123463, "ECCENTRICITY": 0.0071505, "INCLINATION": 98.7193, "RA_OF_ASC_NODE": 345.1857, "ARG_OF_PERICENTER": 280.9429, "MEAN_ANOMALY": 78.3703, "EPHEMERIS_TYPE": 0, "CLASSIFICATION_TYPE": "U", "NORAD_CAT_ID": 31890, "ELEMENT_SET_NO": 999, "REV_AT_EPOCH": 63962, "BSTAR": 0.00016294862, "MEAN_MOTION_DOT": 2.52e-06, "MEAN_MOTION_DDOT": 0}, "tle": {"line1": "1 31890U 99025CKR 25333.25220990  .00000252  00000+0  16295-3 0  9995", "line2": "2 31890  98.7193 345.1857 0071505 280.9429  78.3703 14.10123463639624"}}, "geometry": {"type": "Point", "coordinates": [0.6318543726008881, -47.608123173115615]}}, {"type": "Feature", "properties": {"norad_id": 31891, "name": "FENGYUN 1C DEB", "group": "fengyun-1c-debris", "lat": -27.92533018632264, "lon": -0.45579495068378273, "alt_km": 1121.2605801859, "timestamp": "2025-12-05T04:52:15.576071+00:00", "meta": {"OBJECT_NAME": "FENGYUN 1C DEB", "OBJECT_ID": "1999-025CKS", "EPOCH": "2025-12-02T11:58:50.101536", "MEAN_MOTION": 13.6618805, "ECCENTRICITY": 0.02247087, "INCLINATION": 99.4026, "RA_OF_ASC_NODE": 351.8798, "ARG_OF_PERICENTER": 209.7077, "MEAN_ANOMALY": 149.115, "EPHEMERIS_TYPE": 0, "CLASSIFICATION_TYPE": "U", "NORAD_CAT_ID": 31891, "ELEMENT_SET_NO": 999, "REV_AT_EPOCH": 92270, "BSTAR": 0.00069255791, "MEAN_MOTION_DOT": 6.36e-06, "MEAN_MOTION_DDOT": 0}, "tle": {"line1": "1 31891U 99025CKS 25336.49919099  .00000636  00000+0  69256-3 0  9991", "line2": "2 31891  99.4026 351.8798 0224708 209.7077 149.1150 13.66188050922709"}}, "geometry": {"type": "Point", "coordinates": [-0.45579495068378273, -27.92533018632264]}}, {"type": "Feature", "properties": {"norad_id": 31892, "name": "FENGYUN 1C DEB", "group": "fengyun-1c-debris", "lat": 42.355981932924415, "lon": 139.72651738930205, "alt_km": 759.2163361041257, "timestamp": "2025-12-05T04:52:15.576439+00:00", "meta": {"OBJECT_NAME": "FENGYUN 1C DEB", "OBJECT_ID": "1999-025CKT", "EPOCH": "2025-11-28T17:42:34.843392", "MEAN_MOTION": 14.41106242, "ECCENTRICITY": 0.01997526, "INCLINATION": 99.2904, "RA_OF_ASC_NODE": 141.2838, "ARG_OF_PERICENTER": 327.726, "MEAN_ANOMALY": 31.1829, "EPHEMERIS_TYPE": 0, "CLASSIFICATION_TYPE": "U", "NORAD_CAT_ID": 31892, "ELEMENT_SET_NO": 999, "REV_AT_EPOCH": 64704, "BSTAR": 0.00049032376, "MEAN_MOTION_DOT": 1.94e-05, "MEAN_MOTION_DDOT": 0}, "tle": {"line1": "1 31892U 99025CKT 25332.73790328  .00001940  00000+0  49032-3 0  9996", "line2": "2 31892  99.2904 141.2838 0199752 327.7260  31.1829 14.41106242647045"}}, "geometry": {"type": "Point", "coordinates": [139.72651738930205, 42.355981932924415]}}, {"type": "Feature", "properties": {"norad_id": 31893, "name": "FENGYUN 1C DEB", "group": "fengyun-1c-debris", "lat": 19.763665460964436, "lon": 120.01375176835452, "alt_km": 803.4041566457081, "timestamp": "2025-12-05T04:52:15.576455+00:00", "meta": {"OBJECT_NAME": "FENGYUN 1C DEB", "OBJECT_ID": "1999-025CKU", "EPOCH": "2025-12-04T15:49:00.800256", "MEAN_MOTION": 14.63684489, "ECCENTRICITY": 0.0175614, "INCLINATION": 99.0684, "RA_OF_ASC_NODE": 296.1257, "ARG_OF_PERICENTER": 351.5164, "MEAN_ANOMALY": 183.5923, "EPHEMERIS_TYPE": 0, "CLASSIFICATION_TYPE": "U", "NORAD_CAT_ID": 31893, "ELEMENT_SET_NO": 999, "REV_AT_EPOCH": 98286, "BSTAR": 0.00091634, "MEAN_MOTION_DOT": 5.904e-05, "MEAN_MOTION_DDOT": 0}, "tle": {"line1": "1 31893U 99025CKU 25338.65903704  .00005904  00000+0  91634-3 0  9997", "line2": "2 31893  99.0684 296.1257 0175614 351.5164 183.5923 14.63684489982860"}}, "geometry": {"type": "Point", "coordinates": [120.01375176835452, 19.763665460964436]}}, {"type": "Feature", "properties": {"norad_id": 31895, "name": "FENGYUN 1C DEB", "group": "fengyun-1c-debris", "lat": -78.52735413912967, "lon": 136.3145328263798, "alt_km": 825.2490266231698, "timestamp": "2025-12-05T04:52:15.576465+00:00", "meta": {"OBJECT_NAME": "FENGYUN 1C DEB", "OBJECT_ID": "1999-025CKW", "EPOCH": "2025-12-03T20:09:45.637056", "MEAN_MOTION": 13.7545454, "ECCENTRICITY": 0.0226341, "INCLINATION": 99.0962, "RA_OF_ASC_NODE": 7.1387, "ARG_OF_PERICENTER": 252.9363, "MEAN_ANOMALY": 104.6881, "EPHEMERIS_TYPE": 0, "CLASSIFICATION_TYPE": "U", "NORAD_CAT_ID": 31895, "ELEMENT_SET_NO": 999, "REV_AT_EPOCH": 61774, "BSTAR": 0.0038277, "MEAN_MOTION_DOT": 4.397e-05, "MEAN_MOTION_DDOT": 0}, "tle": {"line1": "1 31895U 99025CKW 25337.84011154  .00004397  00000+0  38277-2 0  9996", "line2": "2 31895  99.0962   7.1387 0226341 252.9363 104.6881 13.75454540617748"}}, "geometry": {"type": "Point", "coordinates": [136.3145328263798, -78.52735413912967]}}]}